NORAD_CAT_ID,OBJECT_NAME,OBJECT_TYPE,EPOCH,MEAN_MOTION,ECCENTRICITY,INCLINATION,RA_OF_ASC_NODE,ARG_OF_PERICENTER,MEAN_ANOMALY,BSTAR,MEAN_MOTION_DOT,MEAN_MOTION_DDOT,TLE_LINE0,TLE_LINE1,TLE_LINE2,SEMIMAJOR_AXIS,PERIOD,APOGEE,PERIGEE,DECAYED
55931.0,STARLINK-5897,PAYLOAD,2024-05-05 13:30:31,14.98330702,0.0003065,69.9997,201.4715,271.1513,88.9295,-9.9224e-05,-1.277e-05,0.0,0 STARLINK-5897,1 55931U 23037T   24126.56286142 -.00001277  00000-0 -99224-4 0  9996,2 55931  69.9997 201.4715 0003065 271.1513  88.9295 14.98330702 62666,6950.191,96.107,574.186,569.925,0.0
55931.0,STARLINK-5897,PAYLOAD,2024-05-05 15:06:39,14.98331023,0.0003066,69.9998,201.3032,271.3542,88.7266,-8.1247e-05,-1.062e-05,0.0,0 STARLINK-5897,1 55931U 23037T   24126.62962084 -.00001062  00000-0 -81247-4 0  9997,2 55931  69.9998 201.3032 0003066 271.3542  88.7266 14.98331023 62677,6950.19,96.107,574.186,569.924,0.0
55931.0,STARLINK-5897,PAYLOAD,2024-05-06 05:31:51,14.98324306,0.0002997,69.9997,199.7884,273.1372,86.9444,0.00024571,2.84e-05,0.0,0 STARLINK-5897,1 55931U 23037T   24127.23045625  .00002840  00000-0  24571-3 0  9997,2 55931  69.9997 199.7884 0002997 273.1372  86.9444 14.98324306 63107,6950.21,96.107,574.158,569.993,0.0
55931.0,STARLINK-5897,PAYLOAD,2024-05-06 11:56:23,14.98332844,0.0003027,69.9996,199.1152,273.5708,86.5104,0.00028089,3.26e-05,0.0,0 STARLINK-5897,1 55931U 23037T   24127.49749049  .00003260  00000-0  28089-3 0  9991,2 55931  69.9996 199.1152 0003027 273.5708  86.5104 14.98332844 63149,6950.184,96.107,574.153,569.945,0.0
55931.0,STARLINK-5897,PAYLOAD,2024-05-06 21:33:11,14.9833243,0.0003004,69.9996,198.1051,273.2555,86.826,0.000206,2.366e-05,0.0,0 STARLINK-5897,1 55931U 23037T   24127.89805185  .00002366  00000-0  20600-3 0  9996,2 55931  69.9996 198.1051 0003004 273.2555  86.8260 14.98332430 62863,6950.185,96.107,574.138,569.963,0.0
55931.0,STARLINK-5897,PAYLOAD,2024-05-07 03:57:44,14.98332369,0.0002829,70.0001,197.4321,274.7347,85.3489,7.6376e-05,8.18e-06,0.0,0 STARLINK-5897,1 55931U 23037T   24128.16509588  .00000818  00000-0  76376-4 0  9997,2 55931  70.0001 197.4321 0002829 274.7347  85.3489 14.98332369 63245,6950.186,96.107,574.017,570.084,0.0
55931.0,STARLINK-5897,PAYLOAD,2024-05-07 13:34:32,14.98331258,0.0002786,70.0002,196.4229,269.9152,90.1688,6.5855e-05,6.93e-06,0.0,0 STARLINK-5897,1 55931U 23037T   24128.56565571  .00000693  00000-0  65855-4 0  9996,2 55931  70.0002 196.4229 0002786 269.9152  90.1688 14.98331258 62963,6950.189,96.107,573.99,570.118,0.0
55931.0,STARLINK-5897,PAYLOAD,2024-05-08 05:35:53,14.98334158,0.000272,70.0002,194.7399,269.2656,90.8192,-7.3167e-05,-9.66e-06,0.0,0 STARLINK-5897,1 55931U 23037T   24129.23325556 -.00000966  00000-0 -73167-4 0  9998,2 55931  70.0002 194.7399 0002720 269.2656  90.8192 14.98334158 63401,6950.18,96.107,573.935,570.155,0.0
55931.0,STARLINK-5897,PAYLOAD,2024-05-08 12:00:24,14.98385073,0.0003016,70.0003,194.0668,263.4402,96.6414,-0.00096868,-0.00011648,0.0,0 STARLINK-5897,1 55931U 23037T   24129.50028392 -.00011648  00000-0 -96868-3 0  9997,2 55931  70.0003 194.0668 0003016 263.4402  96.6414 14.98385073 63445,6950.023,96.103,573.984,569.791,0.0
55931.0,STARLINK-5897,PAYLOAD,2024-05-08 13:36:32,14.98383517,0.0003012,70.0003,193.8985,263.7635,96.3181,-0.00094568,-0.00011374,0.0,0 STARLINK-5897,1 55931U 23037T   24129.56704243 -.00011374  00000-0 -94568-3 0  9990,2 55931  70.0003 193.8985 0003012 263.7635  96.3181 14.98383517 63114,6950.027,96.104,573.986,569.799,0.0
55931.0,STARLINK-5897,PAYLOAD,2024-05-08 21:37:13,14.98338665,0.0002927,70.0001,193.0569,270.68,89.4024,-0.00011832,-1.505e-05,0.0,0 STARLINK-5897,1 55931U 23037T   24129.90085090 -.00001505  00000-0 -11832-3 0  9998,2 55931  70.0001 193.0569 0002927 270.6800  89.4024 14.98338665 63165,6950.166,96.106,574.065,569.997,0.0
55931.0,STARLINK-5897,PAYLOAD,2024-05-09 05:37:53,14.9833184,0.0003021,69.9998,192.215,270.2823,89.799,7.1024e-06,-8e-08,0.0,0 STARLINK-5897,1 55931U 23037T   24130.23465065 -.00000008  00000-0  71024-5 0  9997,2 55931  69.9998 192.2150 0003021 270.2823  89.7990 14.98331840 63557,6950.187,96.107,574.152,569.953,0.0
55931.0,STARLINK-5897,PAYLOAD,2024-05-09 13:38:33,14.9833523,0.0003044,69.9999,191.3734,270.4937,89.5873,1.4972e-05,8.6e-07,0.0,0 STARLINK-5897,1 55931U 23037T   24130.56844752  .00000086  00000-0  14972-4 0  9990,2 55931  69.9999 191.3734 0003044 270.4937  89.5873 14.98335230 63262,6950.177,96.107,574.157,569.926,0.0
55931.0,STARLINK-5897,PAYLOAD,2024-05-10 13:40:35,14.98330239,0.0002999,70.0001,188.8479,268.6405,91.4411,1.3297e-05,6.6e-07,0.0,0 STARLINK-5897,1 55931U 23037T   24131.56985069  .00000066  00000-0  13297-4 0  9995,2 55931  70.0001 188.8479 0002999 268.6405  91.4411 14.98330239 63414,6950.192,96.107,574.142,569.973,0.0
55931.0,STARLINK-5897,PAYLOAD,2024-05-11 04:05:46,14.98338965,0.0003041,69.9998,187.3323,269.3678,90.7133,9.0175e-05,9.83e-06,0.0,0 STARLINK-5897,1 55931U 23037T   24132.17068125  .00000983  00000-0  90175-4 0  9996,2 55931  69.9998 187.3323 0003041 269.3678  90.7133 14.98338965 63841,6950.165,96.106,574.144,569.917,0.0
55931.0,STARLINK-5897,PAYLOAD,2024-05-11 12:06:24,14.98369737,0.0002781,70.0,186.493,267.7598,92.3243,0.00036929,4.32e-05,0.0,0 STARLINK-5897,1 55931U 23037T   24132.50444991  .00004320  00000-0  36929-3 0  9997,2 55931  70.0000 186.4930 0002781 267.7598  92.3243 14.98369737 63891,6950.07,96.104,573.868,570.002,0.0
55931.0,STARLINK-5897,PAYLOAD,2024-05-11 13:42:32,14.98369731,0.0002591,70.0009,186.3262,260.5921,99.4945,0.00039145,4.586e-05,0.0,0 STARLINK-5897,1 55931U 23037T   24132.57120809  .00004586  00000-0  39145-3 0  9990,2 55931  70.0009 186.3262 0002591 260.5921  99.4945 14.98369731 63562,6950.07,96.104,573.736,570.134,0.0
55931.0,STARLINK-5897,PAYLOAD,2024-05-12 05:43:56,14.98322736,0.0003213,69.9997,184.6417,265.0454,95.0338,-0.00012099,-1.536e-05,0.0,0 STARLINK-5897,1 55931U 23037T   24133.23884587 -.00001536  00000-0 -12099-3 0  9997,2 55931  69.9997 184.6417 0003213 265.0454  95.0338 14.98322736 64003,6950.215,96.107,574.313,569.847,0.0
55931.0,STARLINK-5897,PAYLOAD,2024-05-12 12:08:33,14.98261792,0.0003009,69.9995,183.9672,264.1066,95.975,-0.00077317,-9.29e-05,0.0,0 STARLINK-5897,1 55931U 23037T   24133.50594737 -.00009290  00000-0 -77317-3 0  9991,2 55931  69.9995 183.9672 0003009 264.1066  95.9750 14.98261792 64043,6950.404,96.111,574.36,570.177,0.0
55931.0,STARLINK-5897,PAYLOAD,2024-05-12 20:09:13,14.98282484,0.0003234,69.9995,183.1245,262.7693,97.3098,-0.00055566,-6.709e-05,0.0,0 STARLINK-5897,1 55931U 23037T   24133.83973788 -.00006709  00000-0 -55566-3 0  9998,2 55931  69.9995 183.1245 0003234 262.7693  97.3098 14.98282484 64098,6950.34,96.11,574.453,569.957,0.0
55931.0,STARLINK-5897,PAYLOAD,2024-05-13 12:10:31,14.98332332,0.0002572,69.9996,181.4421,265.5052,94.5813,-0.00024571,-3.024e-05,0.0,0 STARLINK-5897,1 55931U 23037T   24134.50730760 -.00003024  00000-0 -24571-3 0  9993,2 55931  69.9996 181.4421 0002572 265.5052  94.5813 14.98332332 64193,6950.186,96.107,573.838,570.263,0.0
55931.0,STARLINK-5897,PAYLOAD,2024-05-13 13:46:39,14.98332183,0.0002555,69.9996,181.2735,266.2916,93.7951,-0.00023606,-2.908e-05,0.0,0 STARLINK-5897,1 55931U 23037T   24134.57406772 -.00002908  00000-0 -23606-3 0  9991,2 55931  69.9996 181.2735 0002555 266.2916  93.7951 14.98332183 63868,6950.186,96.107,573.827,570.275,0.0
55931.0,STARLINK-5897,PAYLOAD,2024-05-13 20:11:11,14.98343547,0.0002539,69.9997,180.6015,262.5402,97.5468,-0.00034214,-4.174e-05,0.0,0 STARLINK-5897,1 55931U 23037T   24134.84110095 -.00004174  00000-0 -34214-3 0  9995,2 55931  69.9997 180.6015 0002539 262.5402  97.5468 14.98343547 63900,6950.151,96.106,573.781,570.251,0.0
55931.0,STARLINK-5897,PAYLOAD,2024-05-14 12:12:32,14.98318639,0.000285,69.999,178.9165,271.3886,88.6946,0.00032743,3.815e-05,0.0,0 STARLINK-5897,1 55931U 23037T   24135.50870573  .00003815  00000-0  32743-3 0  9997,2 55931  69.9990 178.9165 0002850 271.3886  88.6946 14.98318639 64344,6950.228,96.108,574.074,570.112,0.0
55931.0,STARLINK-5897,PAYLOAD,2024-05-14 20:13:12,14.98309134,0.0002608,69.9991,178.0749,266.8433,93.2427,0.00059992,7.068e-05,0.0,0 STARLINK-5897,1 55931U 23037T   24135.84250963  .00007068  00000-0  59992-3 0  9998,2 55931  69.9991 178.0749 0002608 266.8433  93.2427 14.98309134 64056,6950.257,96.108,573.935,570.31,0.0
55931.0,STARLINK-5897,PAYLOAD,2024-05-15 05:50:00,14.98340721,0.0002577,69.9987,177.0649,265.6947,94.3917,0.00021013,2.416e-05,0.0,0 STARLINK-5897,1 55931U 23037T   24136.24306192  .00002416  00000-0  21013-3 0  9994,2 55931  69.9987 177.0649 0002577 265.6947  94.3917 14.98340721 64458,6950.16,96.106,573.816,570.234,0.0
55931.0,STARLINK-5897,PAYLOAD,2024-05-15 12:14:33,14.98336764,0.0002597,69.9987,176.3908,268.4847,91.6014,0.00013065,1.466e-05,0.0,0 STARLINK-5897,1 55931U 23037T   24136.51010519  .00001466  00000-0  13065-3 0  9991,2 55931  69.9987 176.3908 0002597 268.4847  91.6014 14.98336764 64157,6950.172,96.107,573.842,570.232,0.0
55931.0,STARLINK-5897,PAYLOAD,2024-05-15 20:15:13,14.98337144,0.000254,69.9991,175.55,266.9307,93.1562,9.5453e-05,1.046e-05,0.0,0 STARLINK-5897,1 55931U 23037T   24136.84390408  .00001046  00000-0  95453-4 0  9991,2 55931  69.9991 175.5500 0002540 266.9307  93.1562 14.98337144 64544,6950.171,96.107,573.801,570.27,0.0
55931.0,STARLINK-5897,PAYLOAD,2024-05-16 12:16:32,14.98352224,0.0002555,69.9987,173.8669,265.989,94.0977,0.00010915,1.21e-05,0.0,0 STARLINK-5897,1 55931U 23037T   24137.51148773  .00001210  00000-0  10915-3 0  9994,2 55931  69.9987 173.8669 0002555 265.9890  94.0977 14.98352224 64645,6950.124,96.106,573.765,570.213,0.0
55931.0,STARLINK-5897,PAYLOAD,2024-05-16 20:17:13,14.98343141,0.0002238,69.9993,173.0234,266.7021,93.3882,-2.466e-05,-3.87e-06,0.0,0 STARLINK-5897,1 55931U 23037T   24137.84529436 -.00000387  00000-0 -24660-4 0  9998,2 55931  69.9993 173.0234 0002238 266.7021  93.3882 14.98343141 64358,6950.152,96.106,573.573,570.462,0.0
